SWARM A                 
1 39452U 13067B   26155.63684291  .00011663  00000+0  20247-3 0  9992
2 39452  87.3332  60.9025 0003032  90.8909 269.2699 15.50692056704302
SWARM C                 
1 39453U 13067C   26155.63673506  .00011599  00000+0  20134-3 0  9993
2 39453  87.3331  59.4838 0003011  90.9604 269.2002 15.50694197704268
BRITE-CA1 (TORONTO)     
1 40020U 14033L   26155.26417949  .00000870  00000+0  13835-3 0  9995
2 40020  97.9724 284.4316 0077665 319.0531  40.4860 14.72658739640315
OCO 2                   
1 40059U 14035A   26155.65757774  .00000524  00000+0  12644-3 0  9998
2 40059  98.2014  97.1419 0001474  87.5685 272.5683 14.57100674634225
BRITE-PL2 (HEWELIUSZ)   
1 40119U 14049B   26155.25097444  .00002888  00000+0  27217-3 0  9994
2 40119  97.9085 267.1526 0014907 148.0147 212.1981 14.94543231639514
MMS 1                   
1 40482U 15011A   26155.91672454 -.00000363  00000+0  00000+0 0  9994
2 40482  72.0054 348.9354 8336903 167.0540 127.1571  0.28348249  1374
MMS 2                   
1 40483U 15011B   26155.91672454 -.00000363  00000+0  00000+0 0  9995
2 40483  72.0056 348.9376 8337681 167.0597 127.1453  0.28348274  1374
MMS 3                   
1 40484U 15011C   26155.91672454 -.00000362  00000+0  00000+0 0  9995
2 40484  72.0151 348.9400 8337140 167.0546 127.1404  0.28348835  1372
MMS 4                   
1 40485U 15011D   26155.91672454 -.00000362  00000+0  00000+0 0  9996
2 40485  72.0114 348.9357 8336734 167.0624 127.1288  0.28348819  1370
ASTROSAT                
1 40930U 15052A   26155.04032228  .00001809  00000+0  13844-3 0  9999
2 40930   5.9962 249.9966 0008231 211.3918 148.5718 14.82484264577874
DAMPE                   
1 41173U 15078A   26155.81371999  .00001158  00000+0  41511-4 0  9993
2 41173  97.4557 161.2199 0013509 115.4432 244.8209 15.30751143582657
PISAT                   
1 41784U 16059B   26154.99760220  .00001004  00000+0  17864-3 0  9991
2 41784  97.8177 156.0175 0027582 246.5558 113.2748 14.68959119517809
HXMT (HUIYAN)           
1 42758U 17034A   26155.76760025  .00005458  00000+0  26918-3 0  9993
2 42758  43.0139 252.1936 0030238  65.0432 295.3553 15.18378778495771
FLYING LAPTOP           
1 42831U 17042G   26155.85351589  .00004312  00000+0  34046-3 0  9994
2 42831  97.4642 311.8658 0018797 162.0497 198.1395 15.01062666484606
ZHANGHENG 1-01 (CSES-1) 
1 43194U 18015C   26155.83448293  .00007635  00000+0  34974-3 0  9996
2 43194  97.6866 321.2489 0017315 312.7459  47.2318 15.20647730462767
SALSAT                  
1 46495U 20068K   26154.99736177  .00008555  00000+0  30076-3 0  9992
2 46495  97.8850 157.2614 0009364 359.9507   0.1729 15.29597840313346
IXPE                    
1 49954U 21121A   26155.75003471  .00012274  00000+0  67454-3 0  9998
2 49954   0.2305  51.3004 0007013 253.5899 296.2513 15.10134872  5654
SMILE                   
1 69123U 26109A   26144.65318427 -.00001976  00000+0 -42379-3 0  9994
2 69123  70.0007 229.2745 0009123 259.5159 100.4951 14.57062785   802
